NORAD_CAT_ID,OBJECT_NAME,OBJECT_TYPE,EPOCH,MEAN_MOTION,ECCENTRICITY,INCLINATION,RA_OF_ASC_NODE,ARG_OF_PERICENTER,MEAN_ANOMALY,BSTAR,MEAN_MOTION_DOT,MEAN_MOTION_DDOT,TLE_LINE0,TLE_LINE1,TLE_LINE2,SEMIMAJOR_AXIS,PERIOD,APOGEE,PERIGEE,DECAYED
51123.0,STARLINK-3392,PAYLOAD,2022-10-03 20:27:53,15.08849731,0.0001851,53.219,153.3378,51.7998,308.3161,0.00011905,1.608e-05,0.0,0 STARLINK-3392,1 51123U 22005V   22276.85270465  .00001608  00000-0  11905-3 0  9991,2 51123  53.2190 153.3378 0001851  51.7998 308.3161 15.08849731 39749,6917.851,95.437,540.996,538.435,0.0
51123.0,STARLINK-3392,PAYLOAD,2022-10-03 23:38:39,15.08847732,0.0001875,53.2182,152.7448,52.8786,307.2378,0.00022486,3.293e-05,0.0,0 STARLINK-3392,1 51123U 22005V   22276.98518326  .00003293  00000-0  22486-3 0  9994,2 51123  53.2182 152.7448 0001875  52.8786 307.2378 15.08847732 39763,6917.857,95.437,541.019,538.425,0.0
51123.0,STARLINK-3392,PAYLOAD,2022-10-04 21:54:04,15.08839992,0.0001859,53.2175,148.582,52.5141,307.6020000000001,0.0001211999999999,1.641e-05,0.0,0 STARLINK-3392,1 51123U 22005V   22277.91255042  .00001641  00000-0  12120-3 0  9990,2 51123  53.2175 148.5820 0001859  52.5141 307.6020 15.08839992 39909,6917.88,95.438,541.031,538.4590000000002,0.0
51123.0,STARLINK-3392,PAYLOAD,2022-10-05 01:04:50,15.08845862,0.0001878,53.2188,147.9878,55.9101,304.2069,8.017e-05,9.88e-06,0.0,0 STARLINK-3392,1 51123U 22005V   22278.04502735  .00000988  00000-0  80170-4 0  9993,2 51123  53.2188 147.9878 0001878  55.9101 304.2069 15.08845862 41006,6917.861999999999,95.437,541.0269999999998,538.428,0.0
51123.0,STARLINK-3392,PAYLOAD,2022-10-05 09:01:46,15.08839047,0.0001593,53.2178,146.5003,55.8528,304.2615,-3.7828e-05,-8.900000000000001e-06,0.0,0 STARLINK-3392,1 51123U 22005V   22278.37623508 -.00000890  00000-0 -37828-4 0  9997,2 51123  53.2178 146.5003 0001593  55.8528 304.2615 15.08839047 39974,6917.8830000000025,95.438,540.85,538.646,0.0
51123.0,STARLINK-3392,PAYLOAD,2022-10-05 20:09:29,15.08828339,0.0001757,53.2176,144.4189,54.4351,305.6805,-0.00014057,-2.524e-05,0.0,0 STARLINK-3392,1 51123U 22005V   22278.83992614 -.00002524  00000-0 -14057-3 0  9999,2 51123  53.2176 144.4189 0001757  54.4351 305.6805 15.08828339 40043,6917.916,95.438,540.997,538.566,0.0
51123.0,STARLINK-3392,PAYLOAD,2022-10-06 00:55:39,15.08830571,0.0001778,53.2174,143.52700000000004,52.1115,308.0038,-0.00014509,-2.596e-05,0.0,0 STARLINK-3392,1 51123U 22005V   22279.03864626 -.00002596  00000-0 -14509-3 0  9994,2 51123  53.2174 143.5270 0001778  52.1115 308.0038 15.08830571 41157,6917.909000000002,95.438,541.004,538.544,0.0
51123.0,STARLINK-3392,PAYLOAD,2022-10-06 20:00:16,15.08834315,0.0001658,53.2176,139.957,52.2045,307.9097,8.5285e-05,1.069e-05,0.0,0 STARLINK-3392,1 51123U 22005V   22279.83352117  .00001069  00000-0  85285-4 0  9991,2 51123  53.2176 139.9570 0001658  52.2045 307.9097 15.08834315 40197,6917.898,95.438,540.91,538.616,0.0
51123.0,STARLINK-3392,PAYLOAD,2022-10-07 07:07:57,15.08842201,0.0001678,53.2184,137.8742,57.1559,302.9595,0.00016131,2.28e-05,0.0,0 STARLINK-3392,1 51123U 22005V   22280.29719658  .00002280  00000-0  16131-3 0  9999,2 51123  53.2184 137.8742 0001678  57.1559 302.9595 15.08842201 40269,6917.874,95.437,540.899,538.578,0.0
51123.0,STARLINK-3392,PAYLOAD,2022-10-07 19:51:03,15.08834607,0.0001393,53.2174,135.4955,61.9316,298.1817,0.00021037,3.061e-05,0.0,0 STARLINK-3392,1 51123U 22005V   22280.82712071  .00003061  00000-0  21037-3 0  9999,2 51123  53.2174 135.4955 0001393  61.9316 298.1817 15.08834607 41429,6917.897,95.438,540.726,538.798,0.0
51123.0,STARLINK-3392,PAYLOAD,2022-10-07 21:26:26,15.08834905,0.0001320999999999,53.2173,135.1994,91.1496,268.9647,0.0001257,1.713e-05,0.0,0 STARLINK-3392,1 51123U 22005V   22280.89336266  .00001713  00000-0  12570-3 0  9998,2 51123  53.2173 135.1994 0001321  91.1496 268.9647 15.08834905 40351,6917.896,95.438,540.675,538.847,0.0
51123.0,STARLINK-3392,PAYLOAD,2022-10-08 06:58:45,15.08831075,0.0001675,53.2174,133.4155,48.19300000000001,311.9205,0.0001449,2.018e-05,0.0,0 STARLINK-3392,1 51123U 22005V   22281.29080683  .00002018  00000-0  14490-3 0  9994,2 51123  53.2174 133.4155 0001675  48.1930 311.9205 15.08831075 40410,6917.908,95.438,540.931,538.614,0.0
51123.0,STARLINK-3392,PAYLOAD,2022-10-08 19:41:50,15.08838995,0.000172,53.2179,131.0368,50.2898,309.8246,-3.1176e-05,-7.84e-06,0.0,0 STARLINK-3392,1 51123U 22005V   22281.82072867 -.00000784  00000-0 -31176-4 0  9999,2 51123  53.2179 131.0368 0001720  50.2898 309.8246 15.08838995 40490,6917.8830000000025,95.438,540.938,538.559,0.0
51123.0,STARLINK-3392,PAYLOAD,2022-10-09 06:49:33,15.08836369,0.0001617,53.2172,128.9564,51.034,309.0796,-5.7407e-05,-1.201e-05,0.0,0 STARLINK-3392,1 51123U 22005V   22282.28441080 -.00001201  00000-0 -57407-4 0  9997,2 51123  53.2172 128.9564 0001617  51.0340 309.0796 15.08836369 40565,6917.891,95.438,540.875,538.638,0.0
51123.0,STARLINK-3392,PAYLOAD,2022-10-09 19:32:37,15.08839671,0.0001631999999999,53.2176,126.5787,49.0383,311.075,0.00010782,1.428e-05,0.0,0 STARLINK-3392,1 51123U 22005V   22282.81432441  .00001428  00000-0  10782-3 0  9990,2 51123  53.2176 126.5787 0001632  49.0383 311.0750 15.08839671 41722,6917.880999999999,95.438,540.875,538.617,0.0
51123.0,STARLINK-3392,PAYLOAD,2022-10-09 21:08:00,15.08842101,0.0001633,53.2175,126.2813,49.6276,310.4858,0.00013028,1.786e-05,0.0,0 STARLINK-3392,1 51123U 22005V   22282.88056247  .00001786  00000-0  13028-3 0  9996,2 51123  53.2175 126.2813 0001633  49.6276 310.4858 15.08842101 40651,6917.874,95.437,540.869,538.609,0.0
51123.0,STARLINK-3392,PAYLOAD,2022-10-10 00:18:46,15.08846336,0.0001655,53.217,125.6856,47.9198,312.1935,0.0001659,2.354e-05,0.0,0 STARLINK-3392,1 51123U 22005V   22283.01303915  .00002354  00000-0  16590-3 0  9998,2 51123  53.2170 125.6856 0001655  47.9198 312.1935 15.08846336 40675,6917.861,95.437,540.871,538.581,0.0
51123.0,STARLINK-3392,PAYLOAD,2022-10-10 22:34:11,15.08836622,0.000165,53.2168,121.5212,63.0913,297.0247,2.5917e-05,1.24e-06,0.0,0 STARLINK-3392,1 51123U 22005V   22283.94041127  .00000124  00000-0  25917-4 0  9991,2 51123  53.2168 121.5212 0001650  63.0913 297.0247 15.08836622 41891,6917.891,95.438,540.8969999999998,538.614,0.0
51123.0,STARLINK-3392,PAYLOAD,2022-10-11 12:52:40,15.08824559,0.0001929,53.216,118.8453,53.4879,306.629,0.00020793,3.021e-05,0.0,0 STARLINK-3392,1 51123U 22005V   22284.53657707  .00003021  00000-0  20793-3 0  9999,2 51123  53.2160 118.8453 0001929  53.4879 306.6290 15.08824559 41983,6917.928000000001,95.439,541.127,538.4580000000002,0.0
51123.0,STARLINK-3392,PAYLOAD,2022-10-12 06:21:54,15.08843502,0.0001528,53.2171,115.5729,55.7647,304.349,-7.7581e-07,-3e-06,0.0,0 STARLINK-3392,1 51123U 22005V   22285.26520960 -.00000300  00000-0 -77581-6 0  9999,2 51123  53.2171 115.5729 0001528  55.7647 304.3490 15.08843502 41018,6917.87,95.437,540.7919999999998,538.678,0.0
51123.0,STARLINK-3392,PAYLOAD,2022-10-12 20:40:22,15.08837224,0.0001524,53.2171,112.8967,56.9077,303.2061,0.00010588,1.397e-05,0.0,0 STARLINK-3392,1 51123U 22005V   22285.86137101  .00001397  00000-0  10588-3 0  9992,2 51123  53.2171 112.8967 0001524  56.9077 303.2061 15.08837224 41104,6917.889,95.438,540.808,538.7,0.0
51123.0,STARLINK-3392,PAYLOAD,2022-10-12 22:15:45,15.08835667,0.0001618,53.2177,112.6007,49.2698,310.8435,9.5146e-05,1.226e-05,0.0,0 STARLINK-3392,1 51123U 22005V   22285.92761270  .00001226  00000-0  95146-4 0  9994,2 51123  53.2177 112.6007 0001618  49.2698 310.8435 15.08835667 42199,6917.894,95.438,540.878,538.639,0.0
51123.0,STARLINK-3392,PAYLOAD,2022-10-13 12:34:13,15.08839986,0.0001426,53.219,109.9247,36.3812,323.7277,4.6274e-05,4.49e-06,0.0,0 STARLINK-3392,1 51123U 22005V   22286.52377226  .00000449  00000-0  46274-4 0  9999,2 51123  53.2190 109.9247 0001426  36.3812 323.7277 15.08839986 41207,6917.88,95.438,540.732,538.759,0.0
51123.0,STARLINK-3392,PAYLOAD,2022-10-13 18:55:46,15.08839758,0.000162,53.2191,108.7363,33.9095,326.2,4.1273e-05,3.69e-06,0.0,0 STARLINK-3392,1 51123U 22005V   22286.78873278  .00000369  00000-0  41273-4 0  9990,2 51123  53.2191 108.7363 0001620  33.9095 326.2000 15.08839758 41249,6917.880999999999,95.438,540.867,538.625,0.0
51123.0,STARLINK-3392,PAYLOAD,2022-10-14 10:49:38,15.088378099999998,0.0001792,53.2184,105.7615,42.539,317.5741,3.6475e-05,2.92e-06,0.0,0 STARLINK-3392,1 51123U 22005V   22287.45113482  .00000292  00000-0  36475-4 0  9992,2 51123  53.2184 105.7615 0001792  42.5390 317.5741 15.08837810 42425,6917.887,95.438,540.992,538.512,0.0
51123.0,STARLINK-3392,PAYLOAD,2022-10-14 17:11:09,15.08849908,0.0001819,53.2182,104.5715,46.9637,313.1507,4.4021e-06,-2.18e-06,0.0,0 STARLINK-3392,1 51123U 22005V   22287.71608740 -.00000218  00000-0  44021-5 0  9993,2 51123  53.2182 104.5715 0001819  46.9637 313.1507 15.08849908 41380,6917.85,95.437,540.9730000000002,538.457,0.0
51123.0,STARLINK-3392,PAYLOAD,2022-10-15 04:18:52,15.08834417,0.0002255999999999,53.218,102.4917,44.0401,316.0771,4.1273e-05,3.69e-06,0.0,0 STARLINK-3392,1 51123U 22005V   22288.17977764  .00000369  00000-0  41273-4 0  9990,2 51123  53.2180 102.4917 0002256  44.0401 316.0771 15.08834417 41455,6917.897,95.438,541.323,538.202,0.0
51123.0,STARLINK-3392,PAYLOAD,2022-10-15 17:01:58,15.08829958,0.0001902,53.2191,100.1128,48.2893,311.8262,-3.4766e-05,-8.41e-06,0.0,0 STARLINK-3392,1 51123U 22005V   22288.70970249 -.00000841  00000-0 -34766-4 0  9996,2 51123  53.2191 100.1128 0001902  48.2893 311.8262 15.08829958 41535,6917.911,95.438,541.092,538.46,0.0
51123.0,STARLINK-3392,PAYLOAD,2022-10-15 20:12:44,15.08830342,0.0001889999999999,53.218,99.5165,45.8308,314.2839,-3.3246e-05,-8.17e-06,0.0,0 STARLINK-3392,1 51123U 22005V   22288.84218371 -.00000817  00000-0 -33246-4 0  9997,2 51123  53.2180  99.5165 0001890  45.8308 314.2839 15.08830342 42633,6917.91,95.438,541.082,538.467,0.0
